STARLINK-5950           
1 56913U 23083AP  25244.07289391 -.00000832  00000+0 -46528-4 0  9999
2 56913  43.0049  19.3963 0001468 270.1945  89.8729 15.02543078123299
STARLINK-5961           
1 56914U 23083AQ  25243.78701497 -.00002460  00000+0 -16703-3 0  9993
2 56914  43.0051  20.6911 0001223 266.2130  93.8572 15.02543337123257
STARLINK-5965           
1 56915U 23083AR  25244.06623115  .00000479  00000+0  50497-4 0  9991
2 56915  43.0036  19.3473 0000974 273.1447  86.9284 15.02536977123298
STARLINK-5973           
1 56916U 23083AS  25244.10274775  .00000711  00000+0  67731-4 0  9999
2 56916  43.0050  18.7635 0001156 271.4911  88.5799 15.02535973123270
STARLINK-5971           
1 56917U 23083AT  25243.65738313 -.00001530  00000+0 -98206-4 0  9995
2 56917  43.0045  21.4387 0001356 266.9052  93.1635 15.02541876123233
STARLINK-5951           
1 56918U 23083AU  25244.11273486  .00001523  00000+0  12776-3 0  9990
2 56918  43.0053  18.8354 0001352 272.7402  87.3286 15.02539608123302
STARLINK-5966           
1 56919U 23083AV  25243.85126858  .00001296  00000+0  11100-3 0  9998
2 56919  43.0031  20.3150 0001107 275.7083  84.3633 15.02536240123264
STARLINK-5960           
1 56920U 23083AW  25244.10607987 -.00000413  00000+0 -15481-4 0  9995
2 56920  43.0045  18.7821 0001218 267.4652  92.6051 15.02534392123307
STARLINK-5958           
1 56921U 23083AX  25243.78368331  .00000451  00000+0  48478-4 0  9998
2 56921  43.0055  20.6655 0001687 272.7433  87.3216 15.02548546123256
STARLINK-5937           
1 56922U 23083AY  25244.09276576  .00013778  00000+0  10347-2 0  9991
2 56922  43.0038  18.6875 0001499 251.5871 108.4809 15.02476230123300
STARLINK-5952           
1 56923U 23083AZ  25244.10940479  .00000042  00000+0  18215-4 0  9998
2 56923  43.0045  18.8109 0001460 266.9087  93.1589 15.02541762123306
STARLINK-5731           
1 56924U 23083BA  25244.09387377  .00001356  00000+0  11542-3 0  9993
2 56924  43.0076  18.6946 0002611 270.4627  89.5916 15.02539059123418
STARLINK-5733           
1 56925U 23083BB  25243.83017660  .00000555  00000+0  56161-4 0  9997
2 56925  43.0043  20.1544 0001281 267.6797  92.3899 15.02536664123267
STARLINK-5746           
1 56926U 23083BC  25244.09941863  .00000485  00000+0  50972-4 0  9994
2 56926  43.0030  18.7362 0001152 275.0211  85.0499 15.02535591123304
STARLINK-5808           
1 56927U 23083BD  25244.24105335  .00000580  00000+0  58006-4 0  9990
2 56927  43.0034 288.6251 0001255 270.7083  89.3615 15.02532831124354
OTTER PUP               
1 56933U 23084B   25244.14031201  .00044903  00000+0  77581-3 0  9992
2 56933  97.5760  21.2674 0003977 207.9725 152.1314 15.50848935123889
GEISAT PRECURSOR        
1 56934U 23084C   25244.26954272  .00010371  00000+0  37040-3 0  9996
2 56934  97.5859  12.6049 0005205 286.0662  74.0004 15.29030997123293
LAYAN-23                
1 56939U 23084H   25244.05118059  .00143214  00000+0  66842-3 0  9998
2 56939  97.5551  33.0272 0001932 196.3264 163.7943 15.82909280124654
AFRL-XVI                
1 56942U 23084L   25243.92435226  .00075436  00000+0  74471-3 0  9992
2 56942  97.5738  28.1320 0003567 230.4261 129.6684 15.65670546124280
NUSAT-40 (C SHOEMAKER)  
1 56943U 23084M   25244.33535340  .00035812  00000+0  82441-3 0  9997
2 56943  97.4601  12.2065 0005516 226.7353 133.3434 15.42528552123878
NUSAT-41 (C PAYNE-G)    
1 56944U 23084N   25244.31837131  .00021820  00000+0  76377-3 0  9994
2 56944  97.5170  12.0230 0002281 234.6588 125.4439 15.29521980123619
GREGOIRE                
1 56946U 23084Q   25244.25132235  .00012413  00000+0  41478-3 0  9994
2 56946  97.5871  14.2117 0006480 262.2695  97.7810 15.31144905123398
ICEYE-X30               
1 56947U 23084R   25244.18568967  .00033614  00000+0  68706-3 0  9991
2 56947  97.5711  18.7022 0005625 298.6030  61.4653 15.46066390123730
ICEYE-X23               
1 56949U 23084T   25244.32242483  .00072943  00000+0  10957-2 0  9993
2 56949  97.5665  20.5246 0004557 276.5704  83.5030 15.54627239123867
BLACKJACK ACES-3        
1 56950U 23084U   25244.24445214  .00012412  00000+0  55510-3 0  9993
2 56950  97.5843  12.1000 0006749 260.3669  99.6804 15.21432468123261
BLACKJACK ACES-4        
1 56952U 23084W   25244.14718743  .00090953  00000+0  10402-2 0  9990
2 56952  97.5801  24.0636 0005631 216.1177 143.9700 15.61842991124030
RUNNER-1 (TYVAK-1005)   
1 56953U 23084X   25244.26811398  .00013601  00000+0  46692-3 0  9990
2 56953  97.5864  12.7176 0007947 261.1417  98.8923 15.30235730123309
BLACKJACK ACES-2        
1 56955U 23084Z   25244.27967904  .00015209  00000+0  67406-3 0  9990
2 56955  97.5846  12.3065 0006345 264.5723  95.4788 15.21695544123284
BLACKJACK ACES-1        
1 56956U 23084AA  25244.26004281  .00015485  00000+0  68688-3 0  9999
2 56956  97.5817  11.9943 0005576 265.2761  94.7837 15.21666659 72991
ION SCV-011             
1 56957U 23084AB  25244.00205851  .00009568  00000+0  39168-3 0  9994
2 56957  98.1211  40.6102 0007212 328.0698  32.0099 15.24535833121687
