OBJECT_NAME,OBJECT_ID,EPOCH,MEAN_MOTION,ECCENTRICITY,INCLINATION,RA_OF_ASC_NODE,ARG_OF_PERICENTER,MEAN_ANOMALY,EPHEMERIS_TYPE,CLASSIFICATION_TYPE,NORAD_CAT_ID,ELEMENT_SET_NO,REV_AT_EPOCH,BSTAR,MEAN_MOTION_DOT,MEAN_MOTION_DDOT
STARLINK-5950,2023-083AP,2025-09-01T01:44:58.033824,15.02543078,.00014686,43.0049,19.3963,270.1945,89.8729,0,U,56913,999,12329,-.4652788E-4,-.832E-5,0
STARLINK-5961,2023-083AQ,2025-08-31T18:53:18.093408,15.02543337,.00012239,43.0051,20.6911,266.2130,93.8572,0,U,56914,999,12325,-.16702662E-3,-.246E-4,0
STARLINK-5965,2023-083AR,2025-09-01T01:35:22.371360,15.02536977,.00009743,43.0036,19.3473,273.1447,86.9284,0,U,56915,999,12329,.50497263E-4,.479E-5,0
STARLINK-5973,2023-083AS,2025-09-01T02:27:57.405600,15.02535973,.00011567,43.0050,18.7635,271.4911,88.5799,0,U,56916,999,12327,.67731061E-4,.711E-5,0
STARLINK-5971,2023-083AT,2025-08-31T15:46:37.902432,15.02541876,.00013569,43.0045,21.4387,266.9052,93.1635,0,U,56917,999,12323,-.98205567E-4,-.153E-4,0
STARLINK-5951,2023-083AU,2025-09-01T02:42:20.291904,15.02539608,.00013529,43.0053,18.8354,272.7402,87.3286,0,U,56918,999,12330,.12775805E-3,.1523E-4,0
STARLINK-5966,2023-083AV,2025-08-31T20:25:49.605312,15.02536240,.0001107,43.0031,20.3150,275.7083,84.3633,0,U,56919,999,12326,.11099928E-3,.1296E-4,0
STARLINK-5960,2023-083AW,2025-09-01T02:32:45.300768,15.02534392,.00012184,43.0045,18.7821,267.4652,92.6051,0,U,56920,999,12330,-.15480601E-4,-.413E-5,0
STARLINK-5958,2023-083AX,2025-08-31T18:48:30.237984,15.02548546,.00016874,43.0055,20.6655,272.7433,87.3216,0,U,56921,999,12325,.48477829E-4,.451E-5,0
STARLINK-5937,2023-083AY,2025-09-01T02:13:34.961664,15.02476230,.00014996,43.0038,18.6875,251.5871,108.4809,0,U,56922,999,12330,.10346618E-2,.13778E-3,0
STARLINK-5952,2023-083AZ,2025-09-01T02:37:32.573856,15.02541762,.00014602,43.0045,18.8109,266.9087,93.1589,0,U,56923,999,12330,.18214717E-4,.42E-6,0
STARLINK-5731,2023-083BA,2025-09-01T02:15:10.693728,15.02539059,.00026113,43.0076,18.6946,270.4627,89.5916,0,U,56924,999,12341,.11542155E-3,.1356E-4,0
STARLINK-5733,2023-083BB,2025-08-31T19:55:27.258240,15.02536664,.00012813,43.0043,20.1544,267.6797,92.3899,0,U,56925,999,12326,.56161264E-4,.555E-5,0
STARLINK-5746,2023-083BC,2025-09-01T02:23:09.769632,15.02535591,.00011527,43.0030,18.7362,275.0211,85.0499,0,U,56926,999,12330,.50972142E-4,.485E-5,0
STARLINK-5808,2023-083BD,2025-09-01T05:47:07.009440,15.02532831,.00012554,43.0034,288.6251,270.7083,89.3615,0,U,56927,999,12435,.58005675E-4,.58E-5,0
OTTER PUP,2023-084B,2025-09-01T03:22:02.957664,15.50848935,.00039771,97.5760,21.2674,207.9725,152.1314,0,U,56933,999,12388,.77581335E-3,.44903E-3,0
GEISAT PRECURSOR,2023-084C,2025-09-01T06:28:08.491008,15.29030997,.00052051,97.5859,12.6049,286.0662,74.0004,0,U,56934,999,12329,.37039839E-3,.10371E-3,0
LAYAN-23,2023-084H,2025-09-01T01:13:42.002976,15.82909280,.00019325,97.5551,33.0272,196.3264,163.7943,0,U,56939,999,12465,.6684231E-3,.143214E-2,0
AFRL-XVI,2023-084L,2025-08-31T22:11:04.035264,15.65670546,.00035678,97.5738,28.1320,230.4261,129.6684,0,U,56942,999,12428,.74470672E-3,.75436E-3,0
NUSAT-40 (C SHOEMAKER),2023-084M,2025-09-01T08:02:54.533760,15.42528552,.00055169,97.4601,12.2065,226.7353,133.3434,0,U,56943,999,12387,.82440592E-3,.35812E-3,0
NUSAT-41 (C PAYNE-G),2023-084N,2025-09-01T07:38:27.281184,15.29521980,.00022815,97.5170,12.0230,234.6588,125.4439,0,U,56944,999,12361,.76377158E-3,.2182E-3,0
GREGOIRE,2023-084Q,2025-09-01T06:01:54.251040,15.31144905,.00064802,97.5871,14.2117,262.2695,97.7810,0,U,56946,999,12339,.4147766E-3,.12413E-3,0
ICEYE-X30,2023-084R,2025-09-01T04:27:23.587488,15.46066390,.00056255,97.5711,18.7022,298.6030,61.4653,0,U,56947,999,12373,.687059E-3,.33614E-3,0
ICEYE-X23,2023-084T,2025-09-01T07:44:17.505312,15.54627239,.00045571,97.5665,20.5246,276.5704,83.5030,0,U,56949,999,12386,.10956929E-2,.72943E-3,0
BLACKJACK ACES-3,2023-084U,2025-09-01T05:52:00.664896,15.21432468,.00067491,97.5843,12.1000,260.3669,99.6804,0,U,56950,999,12326,.55510433E-3,.12412E-3,0
BLACKJACK ACES-4,2023-084W,2025-09-01T03:31:56.993952,15.61842991,.00056312,97.5801,24.0636,216.1177,143.9700,0,U,56952,999,12403,.10401635E-2,.90953E-3,0
RUNNER-1 (TYVAK-1005),2023-084X,2025-09-01T06:26:05.047872,15.30235730,.00079479,97.5864,12.7176,261.1417,98.8923,0,U,56953,999,12330,.46692285E-3,.13601E-3,0
BLACKJACK ACES-2,2023-084Z,2025-09-01T06:42:44.269056,15.21695544,.00063456,97.5846,12.3065,264.5723,95.4788,0,U,56955,999,12328,.67405796E-3,.15209E-3,0
BLACKJACK ACES-1,2023-084AA,2025-09-01T06:14:27.698784,15.21666659,.0005576,97.5817,11.9943,265.2761,94.7837,0,U,56956,999,7299,.68687796E-3,.15485E-3,0
ION SCV-011,2023-084AB,2025-09-01T00:02:57.855264,15.24535833,.00072124,98.1211,40.6102,328.0698,32.0099,0,U,56957,999,12168,.39168201E-3,.9568E-4,0
